{"type":"FeatureCollection","features":[{"type":"Feature","properties":{"NAME":"India","SUBJECTO":"India","PARTOF":"India","BORDERPRECISION":3},"geometry":{"type":"MultiPolygon","coordinates":[[[[72.515604,35.903959],[72.55675,35.889345],[72.653888,35.854842],[72.655854,35.854143],[72.750009,35.844842],[72.792383,35.837555],[72.798481,35.83771],[72.806129,35.838692],[72.80892,35.841328],[72.814604,35.848097],[72.818015,35.851198],[72.856152,35.870215],[72.864627,35.872799],[72.872172,35.874297],[72.971597,35.878121],[72.977798,35.877191],[72.982509,35.875827],[72.985653,35.874917],[73.000383,35.86878],[73.000536,35.868716],[73.007168,35.86511],[73.008804,35.86422],[73.015744,35.861407],[73.016452,35.86112],[73.031645,35.856831],[73.042187,35.856055],[73.052729,35.85652],[73.05955,35.857761],[73.064305,35.859518],[73.068129,35.861636],[73.07247,35.864892],[73.080634,35.873419],[73.085285,35.876519],[73.086359,35.876304],[73.087966,35.875983],[73.088386,35.875899],[73.090556,35.874142],[73.09221,35.871145],[73.094277,35.868354],[73.108333,35.856159],[73.119097,35.848624],[73.119527,35.848323],[73.119702,35.848201],[73.129359,35.842938],[73.148816,35.832334],[73.149571,35.831923],[73.152981,35.828098],[73.154738,35.824895],[73.154118,35.821329],[73.151328,35.817453],[73.132621,35.802415],[73.129934,35.799418],[73.128487,35.796317],[73.123112,35.744486],[73.123112,35.73689],[73.123836,35.730327],[73.125593,35.724797],[73.12921,35.72025],[73.135308,35.714979],[73.227809,35.663664],[73.240315,35.654311],[73.243725,35.650952],[73.25158,35.645061],[73.282267,35.627514],[73.289964,35.623112],[73.290441,35.62284],[73.296849,35.617104],[73.299226,35.613228],[73.30398,35.602376],[73.306737,35.600538],[73.306835,35.600472],[73.307081,35.600309],[73.309872,35.599301],[73.310801,35.598965],[73.325064,35.595865],[73.329198,35.595451],[73.348938,35.597156],[73.354726,35.596846],[73.365678,35.595021],[73.366198,35.594934],[73.373846,35.592402],[73.374308,35.59218],[73.382177,35.588386],[73.382528,35.588216],[73.388316,35.583979],[73.392347,35.580155],[73.39493,35.574832],[73.396687,35.56982],[73.408941,35.549056],[73.409415,35.548253],[73.409477,35.548149],[73.40971,35.547754],[73.442576,35.561758],[73.46393,35.557897],[73.465465,35.55762],[73.465646,35.557587],[73.465727,35.557572],[73.503554,35.534606],[73.504273,35.534169],[73.504369,35.534111],[73.504795,35.533853],[73.566083,35.541811],[73.629541,35.543],[73.757803,35.527108],[73.758422,35.527032],[73.771637,35.522126],[73.77185,35.522047],[73.772065,35.521967],[73.777853,35.505689],[73.778473,35.50233],[73.781677,35.460886],[73.782607,35.456855],[73.784054,35.452928],[73.784674,35.449879],[73.784157,35.44714],[73.78147,35.444659],[73.776923,35.442437],[73.767518,35.439337],[73.742506,35.427761],[73.72752,35.417633],[73.725866,35.415152],[73.724419,35.412465],[73.722869,35.408486],[73.717185,35.397996],[73.69424,35.36637],[73.691553,35.361099],[73.69021,35.35743],[73.6899,35.354536],[73.690623,35.348541],[73.69083,35.345182],[73.687316,35.31769],[73.687109,35.313608],[73.687419,35.310146],[73.688866,35.306735],[73.718425,35.264102],[73.719975,35.258883],[73.720285,35.254645],[73.717598,35.239297],[73.715118,35.234026],[73.714808,35.23015],[73.715531,35.225138],[73.722146,35.215733],[73.72783,35.211547],[73.731514,35.209748],[73.732109,35.209457],[73.732193,35.209416],[73.732274,35.209377],[73.735685,35.209273],[73.738682,35.20979],[73.741886,35.211237],[73.745813,35.213769],[73.766587,35.231236],[73.769895,35.233199],[73.773099,35.234491],[73.776303,35.23506],[73.801211,35.234905],[73.808439,35.233715],[73.809618,35.233521],[73.812991,35.232533],[73.821054,35.23015],[73.839348,35.221831],[73.858881,35.204622],[73.863374,35.202715],[73.86423,35.202352],[73.864346,35.202302],[73.86994,35.202555],[73.88782,35.208085],[73.897661,35.206927],[73.898362,35.206844],[73.910072,35.203252],[73.914988,35.201744],[73.924304,35.198886],[73.949212,35.172583],[73.954069,35.170723],[73.958101,35.169778],[73.95848,35.169689],[73.958794,35.169615],[73.960684,35.169172],[73.968436,35.17248],[73.976704,35.17434],[73.992275,35.175268],[73.994657,35.174759],[73.994821,35.174723],[73.998718,35.173875],[74.002645,35.171291],[74.003989,35.168242],[74.006356,35.165154],[74.008534,35.163384],[74.025486,35.149639],[74.031481,35.146796],[74.036188,35.145358],[74.037035,35.145099],[74.051612,35.143899],[74.079143,35.141644],[74.079333,35.141629],[74.097268,35.141924],[74.097986,35.141936],[74.098143,35.141939],[74.100368,35.141074],[74.101864,35.140492],[74.102193,35.139999],[74.103518,35.138011],[74.103001,35.134911],[74.101657,35.130622],[74.102381,35.126488],[74.105171,35.121372],[74.119331,35.111243],[74.123051,35.107471],[74.124395,35.105093],[74.124401,35.104971],[74.12469,35.099484],[74.124696,35.099372],[74.124701,35.099201],[74.099384,35.092743],[74.088428,35.085043],[74.081172,35.078349],[74.08109,35.078273],[74.076543,35.072021],[74.067551,35.055381],[74.066001,35.049696],[74.066207,35.045511],[74.067551,35.042255],[74.069079,35.039924],[74.069618,35.039103],[74.070788,35.03803],[74.072719,35.03626],[74.074926,35.03495],[74.076026,35.034297],[74.088118,35.029646],[74.092666,35.0267],[74.09773,35.021429],[74.101347,35.013936],[74.100413,35.010059],[74.100314,35.009647],[74.097523,35.006598],[74.09192,35.003393],[74.085518,34.999731],[74.085328,34.999622],[74.075612,34.991095],[74.066931,34.981794],[74.06445,34.9743],[74.063003,34.965464],[74.064037,34.950168],[74.061453,34.941693],[74.056802,34.932908],[74.054237,34.930843],[74.052565,34.929497],[74.041731,34.922865],[74.041506,34.922727],[74.036658,34.917299],[74.034307,34.914666],[74.034168,34.914511],[74.02993,34.905054],[74.024246,34.888104],[74.02248,34.886053],[74.017955,34.880798],[74.017838,34.880663],[74.015709,34.878979],[74.012362,34.876331],[74.012143,34.876163],[74.000505,34.872432],[73.989106,34.868777],[73.983858,34.867713],[73.978151,34.866555],[73.962234,34.865211],[73.954618,34.862756],[73.95438,34.862679],[73.947662,34.85808],[73.947421,34.85788],[73.942499,34.853786],[73.937223,34.849398],[73.930092,34.839373],[73.930018,34.839305],[73.92872,34.838102],[73.925262,34.8349],[73.923787,34.833534],[73.916242,34.828573],[73.911016,34.826092],[73.908077,34.824697],[73.889871,34.812899],[73.889577,34.812708],[73.887435,34.811935],[73.883996,34.810693],[73.883843,34.810705],[73.841105,34.814103],[73.819504,34.810486],[73.81564,34.809118],[73.797443,34.798052],[73.79656,34.797515],[73.789118,34.794105],[73.783744,34.792451],[73.777233,34.791624],[73.758422,34.792503],[73.750568,34.789971],[73.75042,34.789896],[73.740232,34.784751],[73.718838,34.771315],[73.70871,34.763306],[73.701268,34.755657],[73.69424,34.744599],[73.685559,34.723256],[73.680804,34.715298],[73.650832,34.676696],[73.648972,34.672458],[73.647938,34.667808],[73.649179,34.663053],[73.651246,34.659023],[73.65786,34.649462],[73.659721,34.643985],[73.660341,34.638972],[73.659514,34.633649],[73.638947,34.585487],[73.629231,34.569416],[73.624931,34.565384],[73.623444,34.56399],[73.623285,34.56399],[73.618437,34.56404],[73.616006,34.566769],[73.613832,34.569209],[73.610111,34.575617],[73.607899,34.580745],[73.607835,34.580892],[73.606521,34.583027],[73.605346,34.584924],[73.600396,34.587296],[73.593161,34.588329],[73.591243,34.588339],[73.583239,34.588381],[73.574558,34.587192],[73.565773,34.584919],[73.552826,34.579499],[73.534043,34.571638],[73.533067,34.57153],[73.528876,34.571069],[73.526929,34.571118],[73.524742,34.571173],[73.503864,34.574583],[73.498903,34.574997],[73.497532,34.574982],[73.494149,34.574945],[73.464074,34.570552],[73.463568,34.570332],[73.454462,34.566367],[73.450121,34.562594],[73.447124,34.558047],[73.446193,34.553809],[73.445677,34.549158],[73.445573,34.540373],[73.444953,34.536859],[73.443196,34.533449],[73.438132,34.525956],[73.436685,34.522157],[73.436065,34.517326],[73.437822,34.491126],[73.437512,34.487715],[73.436582,34.48464],[73.435341,34.481798],[73.429037,34.472936],[73.42775,34.470533],[73.427484,34.470029],[73.426763,34.466011],[73.426866,34.435729],[73.425923,34.43033],[73.425374,34.428327],[73.420252,34.409632],[73.415084,34.397643],[73.403831,34.38092],[73.400201,34.375526],[73.407126,34.355036],[73.447227,34.305969],[73.455495,34.292172],[73.459526,34.282405],[73.474099,34.269176],[73.474138,34.269005],[73.490429,34.198353],[73.491359,34.181274],[73.489571,34.149642],[73.489395,34.146522],[73.489787,34.14006],[73.490429,34.129494],[73.490811,34.128201],[73.508515,34.068387],[73.518437,34.009424],[73.518557,34.008467],[73.518576,34.008316],[73.518644,34.00777],[73.579829,33.910464],[73.582516,33.876745],[73.56722,33.803442],[73.576418,33.777138],[73.58851,33.762333],[73.595745,33.745616],[73.599362,33.727477],[73.600293,33.70859],[73.595642,33.695386],[73.577452,33.663244],[73.576418,33.654019],[73.578382,33.64756],[73.573111,33.633659],[73.576418,33.626372],[73.603807,33.605934],[73.614659,33.593119],[73.625201,33.575471],[73.632849,33.556842],[73.635019,33.540796],[73.630988,33.531184],[73.624477,33.528213],[73.618173,33.526172],[73.614659,33.519661],[73.614969,33.510126],[73.622617,33.477157],[73.625924,33.469664],[73.628198,33.461705],[73.627578,33.452068],[73.62241,33.448605],[73.620583,33.448246],[73.613212,33.446797],[73.612732,33.446518],[73.60422,33.441577],[73.594401,33.411734],[73.582826,33.399875],[73.573834,33.387395],[73.576418,33.369541],[73.586857,33.355562],[73.598432,33.342875],[73.603186,33.333031],[73.600293,33.321817],[73.597605,33.315022],[73.593471,33.304299],[73.594918,33.285721],[73.599156,33.26642],[73.600293,33.246706],[73.596882,33.244251],[73.589957,33.241254],[73.588318,33.240746],[73.583033,33.239109],[73.579829,33.239264],[73.57994,33.238427],[73.581172,33.229161],[73.583756,33.227637],[73.587787,33.228464],[73.594428,33.228216],[73.594712,33.228205],[73.599945,33.230359],[73.601429,33.23097],[73.609491,33.232546],[73.614659,33.232443],[73.615382,33.229575],[73.616002,33.22358],[73.617656,33.216888],[73.620756,33.212005],[73.640807,33.20105],[73.649282,33.194848],[73.654863,33.184694],[73.654553,33.173041],[73.649799,33.161853],[73.644424,33.154386],[73.645354,33.143094],[73.622513,33.124491],[73.640497,33.103304],[73.672743,33.084907],[73.731964,33.06266],[73.763487,33.045658],[73.773202,33.030646],[73.786018,33.024652],[73.805861,33.015144],[73.822398,33.013206],[73.829129,33.015386],[73.829736,33.015583],[73.84763,33.02371],[73.849476,33.024549],[73.859502,33.026977],[73.873764,33.028734],[73.907354,33.029949],[73.926061,33.02597],[73.943011,33.018192],[73.951072,33.011449],[73.95624,33.006178],[73.959444,33.001811],[73.960064,33.000519],[73.977014,32.975869],[73.983008,32.969074],[74.316989,32.823067],[74.315939,32.82175],[74.306503,32.809911],[74.316321,32.791075],[74.329344,32.776424],[74.34619,32.76689],[74.367688,32.763531],[74.386394,32.767768],[74.418951,32.784615],[74.438691,32.785984],[74.455331,32.778595],[74.484476,32.753532],[74.500909,32.746013],[74.52096,32.745289],[74.573773,32.75255],[74.59341,32.757872],[74.614081,32.770404],[74.622039,32.785416],[74.626276,32.80265],[74.635888,32.82208],[74.653562,32.837428],[74.671752,32.840581],[74.685291,32.831227],[74.689115,32.808825],[74.682294,32.787328],[74.656972,32.745341],[74.649738,32.723146],[74.650151,32.701235],[74.657282,32.660592],[74.656042,32.64067],[74.647981,32.623617],[74.636922,32.606254],[74.629584,32.588089],[74.632581,32.568168],[74.662553,32.498379],[74.689322,32.471352],[74.724978,32.46081],[74.763529,32.462671],[74.799393,32.47267],[74.83815,32.474866],[74.906983,32.445178],[74.948427,32.44877],[74.990699,32.463368],[75.023668,32.466262],[75.054881,32.455539],[75.092191,32.429339],[75.125988,32.411744],[75.196164,32.3973],[75.230167,32.380195],[75.298403,32.332427],[75.327113,32.339964],[75.390365,32.335494],[75.414136,32.34601],[75.422714,32.353994],[75.43677,32.360221],[75.441938,32.359756],[75.444419,32.353193],[75.442041,32.336192],[75.444729,32.330301],[75.451447,32.324022],[75.464779,32.317743],[75.474184,32.312137],[75.480695,32.30746],[75.5024,32.300587],[75.537953,32.345184],[75.5733,32.374639],[75.611954,32.395465],[75.682647,32.399806],[75.698253,32.406033],[75.705695,32.412802],[75.723161,32.424223],[75.729362,32.429623],[75.732566,32.437168],[75.736804,32.4559],[75.743005,32.464375],[75.797679,32.481118],[75.818039,32.494787],[75.828581,32.497887],[75.839123,32.506569],[75.847391,32.516749],[75.85504,32.526284],[75.867132,32.547471],[75.865892,32.560571],[75.895554,32.596848],[75.912917,32.610542],[75.920462,32.61447],[75.922632,32.617338],[75.925733,32.630567],[75.926043,32.641186],[75.924699,32.651961],[75.904856,32.691312],[75.901445,32.702862],[75.903409,32.736374],[75.913227,32.755675],[75.9124,32.761902],[75.9093,32.772703],[75.903305,32.781617],[75.886665,32.79973],[75.880878,32.80885],[75.876537,32.81761],[75.869612,32.827402],[75.858554,32.839546],[75.82424,32.870449],[75.811735,32.884298],[75.804913,32.898612],[75.803363,32.911997],[75.806877,32.923675],[75.814629,32.931789],[75.826411,32.938067],[75.846048,32.942227],[75.858554,32.94215],[75.869612,32.940005],[75.893797,32.930807],[75.903099,32.928921],[75.911677,32.925898],[75.919842,32.920265],[75.935965,32.903237],[75.943613,32.898121],[75.954672,32.901377],[75.972448,32.911041],[76.05141,32.969461],[76.075491,32.993284],[76.081692,33.000803],[76.100813,33.01305],[76.152799,33.032299],[76.194657,33.043281],[76.215948,33.051084],[76.237032,33.063486],[76.261733,33.086456],[76.270828,33.103535],[76.274239,33.116609],[76.274755,33.12679],[76.28106,33.136453],[76.294289,33.147899],[76.353304,33.180094],[76.396712,33.197716],[76.512157,33.217223],[76.542439,33.232856],[76.558562,33.23146],[76.611893,33.193917],[76.625949,33.189292],[76.739843,33.197406],[76.754519,33.194563],[76.768679,33.186812],[76.82945,33.125549],[76.848364,33.114801],[76.903038,33.07377],[76.927532,33.045864],[76.940141,33.034289],[76.956058,33.02509],[76.999879,33.007236],[77.088453,32.950211],[77.135788,32.92675],[77.219917,32.901997],[77.348695,32.867245],[77.371329,32.867038],[77.377737,32.872206],[77.384972,32.88404],[77.389003,32.887683],[77.393964,32.889931],[77.443986,32.894478],[77.477679,32.901248],[77.497833,32.909258],[77.538968,32.918353],[77.55354,32.923417],[77.566873,32.929877],[77.581032,32.939049],[77.607491,32.962407],[77.615759,32.968298],[77.624854,32.971476],[77.643354,32.97605],[77.652036,32.980468],[77.659994,32.986488],[77.67343,32.999407],[77.675187,33.000415],[77.69441,33.008089],[77.703299,33.013257],[77.71229,33.014523],[77.721075,33.012636],[77.732548,33.001578],[77.742159,32.986953],[77.765207,32.962562],[77.823808,32.910343],[77.857915,32.873007],[77.893468,32.802959],[77.910521,32.790738],[77.922717,32.775183],[77.928918,32.762445],[77.932329,32.710872],[77.93853,32.695343],[77.949382,32.682708],[77.973877,32.660358],[77.983178,32.648059],[77.988346,32.633771],[77.994651,32.620361],[78.008913,32.61031],[78.043226,32.611395],[78.059039,32.618345],[78.069891,32.63036],[78.077023,32.640463],[78.084051,32.645139],[78.093042,32.648989],[78.09883,32.653769],[78.104101,32.661857],[78.114643,32.667722],[78.131696,32.671494],[78.154537,32.674052],[78.178515,32.688754],[78.191538,32.69201],[78.208074,32.692165],[78.227918,32.690175],[78.243731,32.69294],[78.253859,32.697901],[78.268742,32.715704],[78.279388,32.721491],[78.305123,32.729475],[78.314321,32.735444],[78.317628,32.743609],[78.315458,32.760507],[78.317732,32.764667],[78.325173,32.766734],[78.333855,32.767845],[78.353285,32.76862],[78.360416,32.767613],[78.366617,32.76521],[78.370338,32.761127],[78.373439,32.75397],[78.38088,32.729295],[78.383361,32.714438],[78.384291,32.699374],[78.38057,32.669195],[78.37778,32.657335],[78.374679,32.648783],[78.368374,32.639817],[78.358556,32.631678],[78.332924,32.617906],[78.313391,32.605039],[78.304089,32.59615],[78.299438,32.588657],[78.292927,32.575402],[78.286519,32.545094],[78.281868,32.532381],[78.274013,32.518868],[78.270396,32.504166],[78.274013,32.491144],[78.282178,32.480653],[78.29365,32.473289],[78.302952,32.470654],[78.313391,32.471739],[78.358866,32.515587],[78.380983,32.528041],[78.384807,32.547549],[78.408165,32.558376],[78.447542,32.566256],[78.589859,32.569925],[78.630166,32.578013],[78.647736,32.585971],[78.664893,32.599019],[78.694452,32.629663],[78.713262,32.637518],[78.736827,32.629844],[78.750986,32.612791],[78.749126,32.595867],[78.740651,32.578684],[78.734966,32.560649],[78.73693,32.545792],[78.754707,32.493806],[78.77145,32.461663],[78.855682,32.400452],[78.881521,32.376268],[78.911286,32.354745],[78.943429,32.346373],[78.976192,32.361618],[78.989834,32.364098],[79.014742,32.373994],[79.028178,32.377095],[79.039651,32.375984],[79.066316,32.370067],[79.075307,32.37079],[79.09174,32.390556],[79.102902,32.449855],[79.112928,32.472386],[79.132875,32.48546],[79.1614,32.496467],[79.191166,32.50427],[79.215247,32.507914],[79.214317,32.581165],[79.219484,32.62186],[79.22889,32.656122],[79.240155,32.701571],[79.230337,32.750999],[79.205584,32.809031],[79.201186,32.838215],[79.21197,32.91994],[79.175973,32.984784],[79.176076,32.993465],[79.10931,33.007909],[79.095048,33.055115],[79.115822,33.090049],[79.139593,33.12493],[79.140213,33.160251],[79.125038,33.290203],[79.098028,33.287655],[79.075048,33.295743],[79.053278,33.307873],[79.023041,33.31798],[78.993449,33.330782],[78.964986,33.344254],[78.917694,33.386258],[78.912526,33.402303],[78.907566,33.423542],[78.906015,33.447985],[78.909839,33.494236],[78.904052,33.521598],[78.886895,33.566893],[78.885241,33.591775],[78.89599,33.620094],[78.917384,33.6334],[78.945393,33.634124],[78.976192,33.624977],[79.002547,33.619344],[79.012779,33.633685],[79.011332,33.657998],[78.996139,33.705463],[78.995209,33.729674],[78.991281,33.75192],[78.976192,33.76949],[78.945393,33.799824],[78.928753,33.834163],[78.91604,33.870699],[78.89754,33.907466],[78.887515,33.946456],[78.902811,33.983172],[78.935057,34.00715],[79.03934,34.001957],[79.062388,33.99529],[79.070656,33.995497],[79.080992,34.000096],[79.093911,34.014437],[79.101662,34.019992],[79.132255,34.026477],[79.375961,34.011413],[79.40552,34.021904],[79.448514,34.067508],[79.47642,34.088928],[79.495023,34.10593],[79.497814,34.120192],[79.487272,34.156728],[79.488202,34.181894],[79.49802,34.186416],[79.513937,34.182979],[79.53285,34.184168],[79.551557,34.209567],[79.548353,34.25065],[79.524686,34.351522],[79.509493,34.392165],[79.510319,34.412164],[79.523032,34.426091],[79.543599,34.428675],[79.622871,34.411983],[79.669586,34.407436],[79.710588,34.414933],[79.712684,34.415316],[79.738006,34.44472],[79.736766,34.463324],[79.7255,34.475623],[79.711444,34.486449],[79.701729,34.500298],[79.702142,34.520349],[79.713615,34.534844],[79.731495,34.545076],[79.751442,34.551949],[79.794436,34.558822],[79.81335,34.565385],[79.830713,34.580836],[79.839292,34.60006],[79.844563,34.623159],[79.852107,34.64445],[79.866783,34.658041],[79.907298,34.661865],[79.937725,34.656924],[79.995768,34.647499],[80.035249,34.657472],[80.049718,34.67313],[80.066358,34.737416],[80.085582,34.776586],[80.073872,34.792275],[80.077907,34.837333],[80.116557,34.883931],[80.162606,34.950875],[80.173845,35.071917],[80.18325,35.103181],[80.187958,35.150638],[80.202574,35.19085],[80.241832,35.223158],[80.261281,35.26989],[80.255494,35.312678],[80.277714,35.345234],[80.284045,35.395973],[80.284419,35.445521],[80.309434,35.462806],[80.326316,35.466782],[80.327118,35.476874],[80.319211,35.509254],[80.315531,35.53188],[80.312246,35.548964],[80.30597,35.572721],[80.291504,35.607418],[80.243571,35.638661],[80.177905,35.66695],[80.111073,35.680006],[80.088493,35.724689],[80.058235,35.749937],[80.038239,35.799762],[80.00452,35.838928],[79.960285,35.838863],[79.918553,35.82225],[79.875561,35.78496],[79.796442,35.797246],[79.737537,35.802009],[79.716357,35.817181],[79.623335,35.845651],[79.567577,35.858743],[79.545666,35.864634],[79.488646,35.878829],[79.460819,35.885767],[79.428257,35.908507],[79.423916,35.939823],[79.400249,35.961992],[79.363662,35.97517],[79.323664,35.980027],[79.290075,35.977288],[79.183621,35.941322],[79.19405,35.886924],[79.132534,35.836217],[79.028084,35.85237],[78.97143,35.887434],[78.825264,35.865212],[78.776748,35.866651],[78.736543,35.868057],[78.66479,35.852541],[78.652284,35.840914],[78.545314,35.781125],[78.508934,35.767895],[78.435243,35.760971],[78.400206,35.745416],[78.36672,35.725159],[78.329926,35.709243],[78.292616,35.701233],[78.275769,35.694722],[78.26099,35.682784],[78.241043,35.656791],[78.229364,35.647489],[78.185542,35.635965],[78.161875,35.623615],[78.142341,35.605786],[78.128802,35.582997],[78.114849,35.54455],[78.10162,35.538297],[78.073301,35.540209],[77.984521,35.563257],[77.954755,35.561706],[77.941216,35.54672],[77.932018,35.522691],[77.915171,35.494165],[77.88985,35.481763],[77.860291,35.484088],[77.829492,35.491788],[77.800346,35.495406],[77.773578,35.498971],[77.760349,35.498093],[77.74743,35.49432],[77.716734,35.475407],[77.689655,35.462694],[77.660613,35.458095],[77.519608,35.477439],[77.512199,35.478456],[77.476438,35.477164],[77.412773,35.469412],[77.383731,35.471996],[77.352002,35.486052],[77.305389,35.517833],[77.281102,35.528013],[77.250819,35.530701],[77.177542,35.523156],[77.141265,35.525378],[77.105298,35.537987],[77.092276,35.547805],[77.071089,35.571008],[77.058169,35.580103],[77.039049,35.585013],[77.017552,35.584599],[76.976417,35.578656],[76.9358,35.579638],[76.915026,35.583152],[76.896422,35.589612],[76.880506,35.60067],[76.856941,35.628576],[76.842989,35.641288],[76.824592,35.647799],[76.782837,35.645732],[76.777351,35.646112],[76.763407,35.647076],[76.745424,35.655034],[76.732918,35.66661],[76.709043,35.69405],[76.676694,35.71379],[76.604244,35.735701],[76.570757,35.751256],[76.55112,35.784018],[76.56528,35.865461],[76.555461,35.897862],[76.537168,35.902513],[76.500167,35.871507],[76.476499,35.865254],[76.453969,35.864789],[76.44291,35.86329],[76.432058,35.8605],[76.422446,35.854298],[76.410354,35.836832],[76.403119,35.830992],[76.384102,35.828202],[76.366429,35.830889],[76.348859,35.830992],[76.311962,35.80965],[76.296562,35.809495],[76.280542,35.814249],[76.260389,35.817815],[76.237134,35.815489],[76.189799,35.804999],[76.166027,35.806239],[76.138122,35.826652],[76.127787,35.862102],[76.123756,35.903494],[76.114661,35.941787],[76.08996,35.978115],[76.061434,35.991603],[75.984333,35.995633],[75.953017,36.007261],[75.922321,36.031652],[75.899997,36.063485],[75.894313,36.097384],[75.901444,36.113611],[75.91457,36.123894],[75.964179,36.149836],[75.971517,36.155004],[75.976582,36.162755],[75.977408,36.173762],[75.96914,36.191694],[75.97007,36.202339],[75.983403,36.215413],[76.001593,36.222131],[76.014409,36.230399],[76.011928,36.248124],[76.001696,36.261457],[75.976582,36.286985],[75.96883,36.301971],[75.968623,36.341814],[75.987434,36.421189],[75.981083,36.445444],[75.976811,36.461756],[75.976582,36.462633],[75.874779,36.619471],[75.849768,36.644741],[75.790547,36.687839],[75.728741,36.723186],[75.64978,36.754037],[75.570508,36.766749],[75.50798,36.747629],[75.501882,36.737965],[75.498885,36.72763],[75.49258,36.720705],[75.431912,36.722928],[75.410518,36.747319],[75.403387,36.784784],[75.401423,36.825867],[75.394498,36.864263],[75.377962,36.894287],[75.351297,36.915784],[75.31347,36.928755],[75.195131,36.948883],[75.161231,36.964205],[75.132809,36.984695],[75.118546,36.991232],[75.100149,36.994125],[75.01447,36.984488],[74.976849,36.984281],[74.94233,36.976995],[74.924966,36.970871],[74.910497,36.962551],[74.900782,36.949916],[74.891997,36.920977],[74.885796,36.911443],[74.87236,36.907102],[74.866779,36.916559],[74.860887,36.946893],[74.853239,36.958985],[74.824507,36.994125],[74.824301,36.994125],[74.792571,37.015158],[74.719191,37.01645],[74.692216,37.03588],[74.677953,37.051693],[74.66245,37.054484],[74.62607,37.042753],[74.561784,37.029679],[74.542354,37.021669],[74.547418,37.015675],[74.549279,37.008931],[74.548142,37.001644],[74.544214,36.994022],[74.537393,36.962241],[74.521373,36.958495],[74.501736,36.972421],[74.48365,36.99397],[74.480342,36.996916],[74.476622,36.999319],[74.456984,37.004383],[74.43559,37.003221],[74.394043,36.994022],[74.368101,36.976762],[74.284592,36.934232],[74.235706,36.902167],[74.211728,36.895139],[74.145996,36.901702],[74.129666,36.898421],[74.1153,36.889532],[74.108789,36.875631],[74.103931,36.841318],[74.094319,36.831241],[74.035305,36.815583],[74.006366,36.815738],[73.976704,36.824833],[73.946938,36.83088],[73.865083,36.872582],[73.834077,36.882866],[73.772892,36.892013],[73.711842,36.894139],[73.711707,36.893201],[73.708916,36.873823],[73.711558,36.861788],[73.711657,36.861339],[73.711707,36.86111],[73.714498,36.856459],[73.720285,36.851137],[73.723021,36.849412],[73.72504,36.84814],[73.730207,36.845762],[73.737752,36.843437],[73.774752,36.838114],[73.785501,36.834445],[73.797768,36.828548],[73.798937,36.827986],[73.812187,36.816392],[73.812993,36.815687],[73.868081,36.7855],[73.86901,36.784991],[73.880999,36.776464],[73.886979,36.770828],[73.887235,36.770586],[73.887304,36.770522],[73.888976,36.764383],[73.891119,36.756516],[73.891231,36.756104],[73.892058,36.751505],[73.891438,36.74675],[73.887304,36.737965],[73.886373,36.734038],[73.88658,36.730162],[73.88782,36.725563],[73.88813,36.71993],[73.885753,36.714194],[73.879345,36.71161],[73.873971,36.711042],[73.854231,36.714763],[73.833353,36.721429],[73.801934,36.728457],[73.790875,36.72918],[73.787155,36.728405],[73.767414,36.717605],[73.761626,36.716055],[73.756252,36.716416],[73.736305,36.724374],[73.728554,36.726545],[73.721215,36.727113],[73.715118,36.724995],[73.695377,36.71037],[73.684112,36.704892],[73.678634,36.703962],[73.673363,36.704531],[73.661994,36.70913],[73.654863,36.710577],[73.628301,36.70975],[73.622307,36.710163],[73.617863,36.712179],[73.617121,36.712762],[73.613522,36.715589],[73.607631,36.721687],[73.599156,36.732643],[73.595125,36.735485],[73.594812,36.735459],[73.590681,36.735123],[73.576728,36.729232],[73.571044,36.727733],[73.565359,36.72794],[73.557505,36.731247],[73.553164,36.732333],[73.541381,36.732798],[73.519884,36.730731],[73.513993,36.731351],[73.453842,36.747215],[73.429657,36.751091],[73.416014,36.752073],[73.314109,36.721119],[73.296332,36.71745],[73.287547,36.717243],[73.270804,36.718483],[73.243105,36.71652],[73.217887,36.712386],[73.213443,36.712902],[73.208482,36.715228],[73.207906,36.715693],[73.192359,36.72825],[73.182082,36.733891],[73.176546,36.734865],[73.171585,36.733004],[73.142026,36.713988],[73.130554,36.709388],[73.097274,36.702825],[73.078154,36.70081],[73.0734,36.698536],[73.071333,36.694971],[73.071539,36.691095],[73.072676,36.685876],[73.0734,36.663603],[73.077534,36.651149],[73.093037,36.617714],[73.095517,36.609498],[73.095517,36.606604],[73.094484,36.603297],[73.085389,36.590067],[73.072159,36.573634],[73.069369,36.568673],[73.066165,36.556116],[73.063064,36.548985],[73.055003,36.539631],[73.048905,36.535135],[73.042187,36.531156],[72.989167,36.514465],[72.982966,36.511261],[72.979865,36.507799],[72.979865,36.504285],[72.981829,36.50015],[72.98493,36.495603],[72.988547,36.489092],[72.989581,36.483769],[72.98834,36.476173],[72.98493,36.472762],[72.980796,36.47085],[72.955991,36.468111],[72.926019,36.468369],[72.906485,36.465631],[72.895736,36.461548],[72.889948,36.457104],[72.888501,36.452505],[72.885918,36.438914],[72.886124,36.413954],[72.887365,36.402327],[72.886538,36.397056],[72.883644,36.391992],[72.876926,36.384292],[72.869278,36.379693],[72.838375,36.373957],[72.83021,36.370391],[72.821632,36.364603],[72.784528,36.328791],[72.77378,36.322694],[72.767269,36.320006],[72.752696,36.316544],[72.73771,36.310963],[72.718796,36.300111],[72.713938,36.296184],[72.692441,36.271069],[72.686963,36.269157],[72.680866,36.269312],[72.654511,36.278097],[72.642935,36.278975],[72.633427,36.278562],[72.621851,36.27665],[72.607485,36.272722],[72.594256,36.264248],[72.585988,36.25784],[72.578029,36.249881],[72.572035,36.242698],[72.568004,36.236756],[72.564904,36.230141],[72.553845,36.18911],[72.551364,36.173555],[72.551364,36.170041],[72.553121,36.166527],[72.560563,36.155727],[72.562113,36.149991],[72.560253,36.143893],[72.534415,36.116505],[72.531727,36.112319],[72.53028,36.108081],[72.529247,36.102604],[72.529144,36.097539],[72.531211,36.09108],[72.535241,36.08307],[72.536275,36.079659],[72.538032,36.076404],[72.541236,36.072528],[72.572655,36.050049],[72.579166,36.042762],[72.580717,36.034804],[72.588365,36.018681],[72.589088,36.016149],[72.588158,36.01279],[72.515604,35.903959]]],[[[91.564355,27.851372],[91.566023,27.821074],[91.605336,27.810658],[91.63577,27.782525],[91.634957,27.746571],[91.626686,27.716423],[91.579867,27.657977],[91.573252,27.619711],[91.59506,27.546382],[91.604465,27.532145],[91.632887,27.511655],[91.641672,27.494964],[91.657382,27.479151],[91.680223,27.472846],[91.704924,27.468764],[91.727041,27.460005],[91.727092,27.459942],[91.779555,27.456475],[91.816232,27.461357],[91.856578,27.466239],[91.900591,27.45973],[91.963306,27.468919],[91.975088,27.472433],[92.023598,27.44678],[92.084849,27.304226],[92.088776,27.29234],[92.081852,27.275132],[92.050639,27.251413],[92.03679,27.236478],[92.033173,27.227435],[92.029969,27.20847],[92.027075,27.19984],[92.021494,27.19183],[92.008471,27.179479],[92.005788,27.176112],[92.002994,27.172606],[91.995862,27.158033],[91.990798,27.140773],[91.987904,27.122273],[91.987697,27.104031],[91.999893,27.071527],[92.049709,27.026827],[92.066969,26.994943],[92.066969,26.994839],[92.083919,26.937323],[92.080371,26.921571],[92.072757,26.887766],[92.03586,26.854848],[92.131616,26.852057],[92.190166,26.863736],[92.260394,26.869601],[92.38328,26.887145],[92.4594,26.904715],[92.523789,26.933964],[92.582286,26.969053],[92.640836,26.969053],[92.705173,26.922234],[92.769562,26.881306],[92.833951,26.887145],[92.892448,26.887145],[92.950998,26.875415],[93.103185,26.863736],[93.196823,26.875415],[93.2963,26.893011],[93.372419,26.887145],[93.425077,26.91642],[93.524554,26.922234],[93.588943,26.928125],[93.659172,26.963213],[93.72356,26.986623],[93.770379,27.027602],[93.772838,27.064569],[93.776219,27.1154],[93.805468,27.168084],[93.84659,27.198892],[93.852338,27.203199],[93.904996,27.244152],[93.934245,27.273427],[93.959525,27.305927],[93.975225,27.326111],[93.993707,27.33619],[94.039613,27.361225],[94.092272,27.402179],[94.112628,27.422535],[94.139091,27.448997],[94.19764,27.542661],[94.244459,27.5485],[94.255786,27.550767],[94.332257,27.56607],[94.420004,27.583615],[94.484393,27.595319],[94.515909,27.604584],[94.562896,27.618395],[94.683398,27.653817],[94.777036,27.694796],[94.788978,27.699441],[94.82679,27.714147],[94.882404,27.735776],[94.896187,27.745814],[94.94669,27.782595],[95.005291,27.800165],[95.081359,27.835279],[95.151587,27.870393],[95.233546,27.905507],[95.256955,27.940621],[95.274525,27.98744],[95.274525,28.034259],[95.286204,28.075238],[95.374002,28.110352],[95.48521,28.139627],[95.649076,28.20399],[95.789533,28.256674],[95.842191,28.262514],[95.8656,28.250809],[95.88317,28.22156],[95.93588,28.186446],[95.988538,28.163037],[96.064606,28.192285],[96.140674,28.192285],[96.181653,28.215695],[96.222633,28.209855],[96.251882,28.192285],[96.275291,28.139627],[96.33384,28.116218],[96.368929,28.122057],[96.37482,28.151332],[96.404069,28.163037],[96.439209,28.133762],[96.491815,28.086943],[96.526955,28.063534],[96.567935,28.051829],[96.620593,27.993305],[96.655733,27.958191],[96.708391,27.952326],[96.75521,27.940621],[96.784511,27.899668],[96.866418,27.887963],[96.954216,27.846984],[96.954216,27.823574],[97.036175,27.78846],[97.036175,27.74292],[97.050541,27.746783],[97.056742,27.746783],[97.060359,27.750452],[97.062013,27.763345],[97.06532,27.773991],[97.072348,27.779184],[97.092192,27.785489],[97.098186,27.791018],[97.106041,27.805539],[97.112449,27.809208],[97.123198,27.812154],[97.131776,27.816856],[97.182109,27.857267],[97.198025,27.873261],[97.210944,27.889513],[97.222933,27.899719],[97.241227,27.907858],[97.260657,27.912044],[97.276367,27.910339],[97.288046,27.897756],[97.288666,27.884346],[97.292903,27.87755],[97.314917,27.884604],[97.333521,27.894164],[97.338172,27.901554],[97.336311,27.913181],[97.335691,27.935609],[97.340032,27.951809],[97.356775,27.980567],[97.362253,27.994881],[97.355122,28.023045],[97.306546,28.069657],[97.292903,28.095082],[97.298898,28.12924],[97.328663,28.190012],[97.323496,28.217478],[97.285255,28.235668],[97.229651,28.274606],[97.220763,28.283391],[97.210531,28.308092],[97.20278,28.311555],[97.193271,28.3114],[97.182729,28.314991],[97.11555,28.366564],[97.078446,28.375143],[97.032971,28.35703],[96.997417,28.337083],[96.965791,28.330468],[96.933959,28.336618],[96.897889,28.354704],[96.716924,28.436539],[96.604426,28.444534],[96.561518,28.447293],[96.512382,28.428808],[96.495226,28.42147],[96.441127,28.395416],[96.369644,28.378116],[96.301852,28.420711],[96.336459,28.479667],[96.409019,28.558929],[96.502375,28.644476],[96.501044,28.687631],[96.59801,28.70991],[96.592584,28.757884],[96.576668,28.808527],[96.523751,28.864415],[96.510832,28.885525],[96.500394,28.929243],[96.492229,28.948002],[96.474659,28.962058],[96.460086,28.96335],[96.452128,28.970378],[96.451198,28.981385],[96.457605,28.994588],[96.366568,29.036537],[96.294655,28.992324],[96.248588,28.945343],[96.195323,28.941106],[96.175954,29.017354],[96.174625,29.108845],[96.183514,29.123779],[96.193642,29.136931],[96.210075,29.145767],[96.316425,29.171864],[96.327484,29.180442],[96.342367,29.210647],[96.366862,29.244211],[96.366241,29.257233],[96.349912,29.274235],[96.337096,29.279713],[96.323247,29.27501],[96.304126,29.261212],[96.26785,29.24173],[96.235293,29.241214],[96.205424,29.256949],[96.176279,29.286456],[96.166047,29.303174],[96.150957,29.354075],[96.141966,29.368467],[96.074536,29.369286],[96.014135,29.364252],[95.953735,29.359219],[95.863134,29.323985],[95.79594,29.352886],[95.776407,29.345548],[95.744781,29.340432],[95.747365,29.273651],[95.717165,29.218284],[95.646697,29.22835],[95.592335,29.249689],[95.58169,29.247467],[95.572905,29.24726],[95.56443,29.245606],[95.553785,29.239043],[95.550684,29.230284],[95.552028,29.22013],[95.550167,29.212482],[95.515337,29.209433],[95.511927,29.197547],[95.522675,29.161193],[95.521435,29.137861],[95.511307,29.131789],[95.487577,29.068994],[95.429824,29.046525],[95.367406,29.036496],[95.281553,29.052672],[95.224916,29.059364],[95.216338,29.064997],[95.214064,29.073084],[95.212824,29.081869],[95.207863,29.089595],[95.199698,29.094246],[95.191533,29.09683],[95.116912,29.108095],[95.099032,29.11378],[95.047666,29.140806],[94.989065,29.153984],[94.891293,29.160495],[94.854086,29.170004],[94.815432,29.168867],[94.798792,29.166438],[94.776571,29.166696],[94.761482,29.174706],[94.767683,29.213851],[94.756417,29.230517],[94.704224,29.284699],[94.668464,29.30661],[94.63043,29.319452],[94.599941,29.316635],[94.582681,29.302915],[94.528628,29.23124],[94.514778,29.22106],[94.498242,29.21522],[94.474987,29.210802],[94.422381,29.210492],[94.396439,29.207081],[94.372875,29.196307],[94.36254,29.185326],[94.346313,29.159074],[94.335771,29.149617],[94.323782,29.146026],[94.287505,29.147938],[94.270786,29.09793],[94.309048,29.059668],[94.347311,29.024349],[94.291389,28.977256],[94.250183,28.933107],[94.173658,28.930164],[94.135396,28.897788],[94.079474,28.883072],[94.026849,28.864182],[94.01145,28.85302],[93.992019,28.844649],[93.993136,28.801887],[93.981591,28.768131],[93.961093,28.729943],[93.927786,28.682752],[93.86308,28.704871],[93.781744,28.680504],[93.722475,28.696647],[93.705525,28.691893],[93.664908,28.690239],[93.64341,28.68024],[93.62553,28.67236],[93.607133,28.672204],[93.551736,28.678948],[93.446213,28.671894],[93.355432,28.624065],[93.31717,28.603463],[93.302843,28.556921],[93.286972,28.520517],[93.259068,28.496023],[93.218838,28.457436],[93.186286,28.431995],[93.218073,28.394647],[93.207825,28.340539],[93.129828,28.325962],[93.046399,28.302097],[92.974924,28.282306],[92.960351,28.270214],[92.922007,28.258638],[92.903817,28.249698],[92.889554,28.235823],[92.86537,28.205205],[92.85028,28.19195],[92.834777,28.183526],[92.819895,28.179263],[92.805322,28.178023],[92.790232,28.178901],[92.785375,28.183294],[92.782894,28.190942],[92.779174,28.195903],[92.770079,28.192182],[92.70786,28.155414],[92.678611,28.133064],[92.65484,28.105831],[92.63727,28.071983],[92.638924,28.057487],[92.65422,28.052087],[92.689257,28.048315],[92.701349,28.037825],[92.701349,28.025241],[92.736392,27.985909],[92.71077,27.949702],[92.683674,27.91045],[92.636468,27.89537],[92.592912,27.868193],[92.574977,27.847806],[92.518151,27.839468],[92.475109,27.846596],[92.439039,27.82329],[92.427567,27.821171],[92.417335,27.828948],[92.404416,27.853831],[92.392841,27.856027],[92.381058,27.842462],[92.375581,27.821119],[92.367933,27.803834],[92.350053,27.802542],[92.339821,27.815564],[92.334653,27.831274],[92.329175,27.832928],[92.31729,27.803679],[92.303854,27.78616],[92.288764,27.793085],[92.275225,27.811689],[92.258275,27.848198],[92.24918,27.862642],[92.239568,27.865277],[92.126294,27.812722],[92.10616,27.786081],[92.064878,27.761721],[91.988898,27.769398],[91.968001,27.746278],[91.952247,27.72482],[91.908736,27.7319],[91.864914,27.729988],[91.856373,27.764539],[91.826589,27.807627],[91.729871,27.804136],[91.680131,27.849823],[91.628339,27.852694],[91.564355,27.851372]]]]}}]}